start=new Date('2023-05-09T00:00:00.000Z').valueOf();
sats=[{"SEMIMAJOR_AXIS":"6917.861","COUNTRY_CODE":"US","CLASSIFICATION_TYPE":"U","EPHEMERIS_TYPE":"0","CENTER_NAME":"EARTH","OBJECT_TYPE":"PAYLOAD","EPOCH":"2023-05-08T21:37:41.882880","INCLINATION":"53.2190","MEAN_ELEMENT_THEORY":"SGP4","LAUNCH_DATE":"2022-12-17","TIME_SYSTEM":"UTC","MEAN_ANOMALY":"280.7470","ELEMENT_SET_NO":"999","TLE_LINE2":"2 54790  53.2190 358.7392 0001152  79.3652 280.7470 15.08846327 23765","FILE":"3904305","MEAN_MOTION_DOT":"-0.00000469","REF_FRAME":"TEME","RCS_SIZE":"LARGE","PERIOD":"95.437","TLE_LINE1":"1 54790U 22175AJ  23128.90117920 -.00000469  00000-0 -11404-4 0  9992","GP_ID":"231477195","PERIAPSIS":"538.929","DECAY_DATE":null,"APOAPSIS":"540.523","SITE":"AFETR","ARG_OF_PERICENTER":"79.3652","MEAN_MOTION":"15.08846327","NORAD_CAT_ID":"54790","REV_AT_EPOCH":"2376","OBJECT_ID":"2022-175AJ","RA_OF_ASC_NODE":"358.7392","OBJECT_NAME":"STARLINK-5445","BSTAR":"-0.00001140400000","ECCENTRICITY":"0.00011520","MEAN_MOTION_DDOT":"0.0000000000000"},{"EPOCH":"2023-05-08T21:58:54.777792","INCLINATION":"53.2185","OBJECT_TYPE":"PAYLOAD","EPHEMERIS_TYPE":"0","CENTER_NAME":"EARTH","SEMIMAJOR_AXIS":"6917.847","COUNTRY_CODE":"US","CLASSIFICATION_TYPE":"U","FILE":"3904305","MEAN_MOTION_DOT":"-0.00000415","TLE_LINE2":"2 54791  53.2185 358.8316 0000871  82.2186 277.8905 15.08850761 23766","TIME_SYSTEM":"UTC","LAUNCH_DATE":"2022-12-17","MEAN_ELEMENT_THEORY":"SGP4","MEAN_ANOMALY":"277.8905","ELEMENT_SET_NO":"999","REV_AT_EPOCH":"2376","OBJECT_ID":"2022-175AK","SITE":"AFETR","ARG_OF_PERICENTER":"82.2186","MEAN_MOTION":"15.08850761","NORAD_CAT_ID":"54791","DECAY_DATE":null,"APOAPSIS":"540.315","REF_FRAME":"TEME","PERIOD":"95.437","RCS_SIZE":"LARGE","GP_ID":"231477952","TLE_LINE1":"1 54791U 22175AK  23128.91591178 -.00000415  00000-0 -79819-5 0  9991","PERIAPSIS":"539.110","MEAN_MOTION_DDOT":"0.0000000000000","BSTAR":"-0.00000798190000","ECCENTRICITY":"0.00008710","OBJECT_NAME":"STARLINK-5425","RA_OF_ASC_NODE":"358.8316"},{"MEAN_MOTION_DOT":"0.00001095","FILE":"3904305","TLE_LINE2":"2 54792  53.2183  13.6439 0001211  56.8481 303.2627 15.08842536 23554","LAUNCH_DATE":"2022-12-17","MEAN_ELEMENT_THEORY":"SGP4","TIME_SYSTEM":"UTC","MEAN_ANOMALY":"303.2627","ELEMENT_SET_NO":"999","INCLINATION":"53.2183","EPOCH":"2023-05-08T21:22:26.499936","OBJECT_TYPE":"PAYLOAD","CENTER_NAME":"EARTH","EPHEMERIS_TYPE":"0","COUNTRY_CODE":"US","CLASSIFICATION_TYPE":"U","SEMIMAJOR_AXIS":"6917.873","MEAN_MOTION_DDOT":"0.0000000000000","ECCENTRICITY":"0.00012110","BSTAR":"0.00008684100000","OBJECT_NAME":"STARLINK-5431","RA_OF_ASC_NODE":"13.6439","OBJECT_ID":"2022-175AL","REV_AT_EPOCH":"2355","MEAN_MOTION":"15.08842536","NORAD_CAT_ID":"54792","ARG_OF_PERICENTER":"56.8481","SITE":"AFETR","APOAPSIS":"540.575","DECAY_DATE":null,"PERIAPSIS":"538.900","TLE_LINE1":"1 54792U 22175AL  23128.89058449  .00001095  00000-0  86841-4 0  9993","GP_ID":"231477699","REF_FRAME":"TEME","PERIOD":"95.437","RCS_SIZE":"LARGE"},{"MEAN_MOTION_DDOT":"0.0000000000000","OBJECT_NAME":"STARLINK-5433","RA_OF_ASC_NODE":"349.2003","ECCENTRICITY":"0.00008810","BSTAR":"-0.00282360000000","MEAN_MOTION":"15.10097156","NORAD_CAT_ID":"54793","SITE":"AFETR","ARG_OF_PERICENTER":"92.1854","OBJECT_ID":"2022-175AM","REV_AT_EPOCH":"2389","TLE_LINE1":"1 54793U 22175AM  23128.85109033 -.00046507  00000-0 -28236-2 0  9997","GP_ID":"231476450","PERIAPSIS":"535.296","REF_FRAME":"TEME","PERIOD":"95.358","RCS_SIZE":"LARGE","APOAPSIS":"536.515","DECAY_DATE":null,"MEAN_MOTION_DOT":"-0.00046507","FILE":"3904305","MEAN_ELEMENT_THEORY":"SGP4","LAUNCH_DATE":"2022-12-17","TIME_SYSTEM":"UTC","ELEMENT_SET_NO":"999","MEAN_ANOMALY":"267.9239","TLE_LINE2":"2 54793  53.2187 349.2003 0000881  92.1854 267.9239 15.10097156 23898","OBJECT_TYPE":"PAYLOAD","EPOCH":"2023-05-08T20:25:34.204512","INCLINATION":"53.2187","COUNTRY_CODE":"US","CLASSIFICATION_TYPE":"U","SEMIMAJOR_AXIS":"6914.040","CENTER_NAME":"EARTH","EPHEMERIS_TYPE":"0"},{"SEMIMAJOR_AXIS":"6892.503","COUNTRY_CODE":"US","CLASSIFICATION_TYPE":"U","EPHEMERIS_TYPE":"0","CENTER_NAME":"EARTH","OBJECT_TYPE":"PAYLOAD","EPOCH":"2023-05-08T21:12:18.675072","INCLINATION":"53.2171","TIME_SYSTEM":"UTC","LAUNCH_DATE":"2022-12-17","MEAN_ELEMENT_THEORY":"SGP4","ELEMENT_SET_NO":"999","MEAN_ANOMALY":"246.5713","TLE_LINE2":"2 54794  53.2171  10.8095 0005666 113.5878 246.5713 15.17180686 23599","FILE":"3904305","MEAN_MOTION_DOT":"0.00059047","REF_FRAME":"TEME","PERIOD":"94.913","RCS_SIZE":"LARGE","TLE_LINE1":"1 54794U 22175AN  23128.88354948  .00059047  00000-0  29281-2 0  9990","GP_ID":"231476695","PERIAPSIS":"510.463","DECAY_DATE":null,"APOAPSIS":"518.273","SITE":"AFETR","ARG_OF_PERICENTER":"113.5878","MEAN_MOTION":"15.17180686","NORAD_CAT_ID":"54794","REV_AT_EPOCH":"2359","OBJECT_ID":"2022-175AN","RA_OF_ASC_NODE":"10.8095","OBJECT_NAME":"STARLINK-5392","BSTAR":"0.00292810000000","ECCENTRICITY":"0.00056660","MEAN_MOTION_DDOT":"0.0000000000000"},{"EPHEMERIS_TYPE":"0","CENTER_NAME":"EARTH","SEMIMAJOR_AXIS":"6917.838","COUNTRY_CODE":"US","CLASSIFICATION_TYPE":"U","EPOCH":"2023-05-08T21:43:00.341184","INCLINATION":"53.2183","OBJECT_TYPE":"PAYLOAD","TLE_LINE2":"2 54795  53.2183 358.7645 0001082  81.8043 278.3072 15.08853796 23766","TIME_SYSTEM":"UTC","LAUNCH_DATE":"2022-12-17","MEAN_ANOMALY":"278.3072","MEAN_ELEMENT_THEORY":"SGP4","ELEMENT_SET_NO":"999","FILE":"3904305","MEAN_MOTION_DOT":"-0.00000432","DECAY_DATE":null,"APOAPSIS":"540.452","REF_FRAME":"TEME","PERIOD":"95.437","RCS_SIZE":"LARGE","GP_ID":"231477452","TLE_LINE1":"1 54795U 22175AP  23128.90486506 -.00000432  00000-0 -90860-5 0  9990","PERIAPSIS":"538.955","REV_AT_EPOCH":"2376","OBJECT_ID":"2022-175AP","SITE":"AFETR","ARG_OF_PERICENTER":"81.8043","MEAN_MOTION":"15.08853796","NORAD_CAT_ID":"54795","BSTAR":"-0.00000908600000","ECCENTRICITY":"0.00010820","RA_OF_ASC_NODE":"358.7645","OBJECT_NAME":"STARLINK-5436","MEAN_MOTION_DDOT":"0.0000000000000"},{"ECCENTRICITY":"0.00011750","BSTAR":"0.00035027000000","RA_OF_ASC_NODE":"358.7233","OBJECT_NAME":"STARLINK-5415","MEAN_MOTION_DDOT":"0.0000000000000","APOAPSIS":"540.530","DECAY_DATE":null,"TLE_LINE1":"1 54796U 22175AQ  23128.89749960  .00005292  00000-0  35027-3 0  9994","GP_ID":"231478200","PERIAPSIS":"538.905","RCS_SIZE":"LARGE","PERIOD":"95.437","REF_FRAME":"TEME","OBJECT_ID":"2022-175AQ","REV_AT_EPOCH":"2376","NORAD_CAT_ID":"54796","MEAN_MOTION":"15.08849108","SITE":"AFETR","ARG_OF_PERICENTER":"80.7503","TLE_LINE2":"2 54796  53.2166 358.7233 0001175  80.7503 279.3622 15.08849108 23767","MEAN_ANOMALY":"279.3622","LAUNCH_DATE":"2022-12-17","TIME_SYSTEM":"UTC","MEAN_ELEMENT_THEORY":"SGP4","ELEMENT_SET_NO":"999","MEAN_MOTION_DOT":"0.00005292","FILE":"3904305","CENTER_NAME":"EARTH","EPHEMERIS_TYPE":"0","CLASSIFICATION_TYPE":"U","COUNTRY_CODE":"US","SEMIMAJOR_AXIS":"6917.853","INCLINATION":"53.2166","EPOCH":"2023-05-08T21:32:23.965440","OBJECT_TYPE":"PAYLOAD"},{"MEAN_MOTION_DOT":"0.00002135","FILE":"3904305","LAUNCH_DATE":"2022-12-17","TIME_SYSTEM":"UTC","ELEMENT_SET_NO":"999","MEAN_ANOMALY":"266.3263","MEAN_ELEMENT_THEORY":"SGP4","TLE_LINE2":"2 54797  53.2186  13.6622 0001222  93.7869 266.3263 15.08848805 23558","OBJECT_TYPE":"PAYLOAD","INCLINATION":"53.2186","EPOCH":"2023-05-08T21:27:44.758656","CLASSIFICATION_TYPE":"U","COUNTRY_CODE":"US","SEMIMAJOR_AXIS":"6917.853","CENTER_NAME":"EARTH","EPHEMERIS_TYPE":"0","MEAN_MOTION_DDOT":"0.0000000000000","RA_OF_ASC_NODE":"13.6622","OBJECT_NAME":"STARLINK-5435","ECCENTRICITY":"0.00012220","BSTAR":"0.00015218000000","NORAD_CAT_ID":"54797","MEAN_MOTION":"15.08848805","SITE":"AFETR","ARG_OF_PERICENTER":"93.7869","OBJECT_ID":"2022-175AR","REV_AT_EPOCH":"2355","GP_ID":"231476951","TLE_LINE1":"1 54797U 22175AR  23128.89426804  .00002135  00000-0  15218-3 0  9997","PERIAPSIS":"538.873","PERIOD":"95.437","RCS_SIZE":"LARGE","REF_FRAME":"TEME","APOAPSIS":"540.564","DECAY_DATE":null},{"TLE_LINE1":"1 54798U 22175AS  23128.89473427 -.00001683  00000-0 -87639-4 0  9997","GP_ID":"231477196","PERIAPSIS":"538.874","REF_FRAME":"TEME","RCS_SIZE":"LARGE","PERIOD":"95.437","APOAPSIS":"540.547","DECAY_DATE":null,"MEAN_MOTION":"15.08851394","NORAD_CAT_ID":"54798","ARG_OF_PERICENTER":"89.6401","SITE":"AFETR","OBJECT_ID":"2022-175AS","REV_AT_EPOCH":"2390","OBJECT_NAME":"STARLINK-5420","RA_OF_ASC_NODE":"348.7464","ECCENTRICITY":"0.00012090","BSTAR":"-0.00008763900000","MEAN_MOTION_DDOT":"0.0000000000000","COUNTRY_CODE":"US","CLASSIFICATION_TYPE":"U","SEMIMAJOR_AXIS":"6917.846","CENTER_NAME":"EARTH","EPHEMERIS_TYPE":"0","OBJECT_TYPE":"PAYLOAD","INCLINATION":"53.2177","EPOCH":"2023-05-08T21:28:25.040928","TIME_SYSTEM":"UTC","LAUNCH_DATE":"2022-12-17","MEAN_ELEMENT_THEORY":"SGP4","MEAN_ANOMALY":"270.4730","ELEMENT_SET_NO":"999","TLE_LINE2":"2 54798  53.2177 348.7464 0001209  89.6401 270.4730 15.08851394 23907","MEAN_MOTION_DOT":"-0.00001683","FILE":"3904305"},{"MEAN_MOTION_DDOT":"0.0000000000000","BSTAR":"-0.00005643200000","ECCENTRICITY":"0.00011360","RA_OF_ASC_NODE":"349.1609","OBJECT_NAME":"STARLINK-5421","REV_AT_EPOCH":"2389","OBJECT_ID":"2022-175AT","SITE":"AFETR","ARG_OF_PERICENTER":"91.1319","NORAD_CAT_ID":"54799","MEAN_MOTION":"15.08846781","DECAY_DATE":null,"APOAPSIS":"540.511","PERIOD":"95.437","RCS_SIZE":"LARGE","REF_FRAME":"TEME","GP_ID":"231477953","TLE_LINE1":"1 54799U 22175AT  23128.84692237 -.00001186  00000-0 -56432-4 0  9990","PERIAPSIS":"538.939","FILE":"3904305","MEAN_MOTION_DOT":"-0.00001186","TLE_LINE2":"2 54799  53.2185 349.1609 0001136  91.1319 268.9804 15.08846781 23894","LAUNCH_DATE":"2022-12-17","MEAN_ANOMALY":"268.9804","TIME_SYSTEM":"UTC","MEAN_ELEMENT_THEORY":"SGP4","ELEMENT_SET_NO":"999","EPOCH":"2023-05-08T20:19:34.092768","INCLINATION":"53.2185","OBJECT_TYPE":"PAYLOAD","EPHEMERIS_TYPE":"0","CENTER_NAME":"EARTH","SEMIMAJOR_AXIS":"6917.860","CLASSIFICATION_TYPE":"U","COUNTRY_CODE":"US"}];
